CCSDS_OMM_VERS = 2.0
CREATION_DATE  = 
ORIGINATOR     = 

OBJECT_NAME    = SDA-1664
OBJECT_ID      = 2025-230A
CENTER_NAME    = EARTH
REF_FRAME      = TEME
TIME_SYSTEM    = UTC
MEAN_ELEMENT_THEORY = SGP/SGP4

EPOCH          = 2025-10-30T07:30:44.156448
MEAN_MOTION    = 13.84695914
ECCENTRICITY   = .00035283
INCLINATION    = 81.2983
RA_OF_ASC_NODE = 64.8830
ARG_OF_PERICENTER = 73.2887
MEAN_ANOMALY   = 286.8657

EPHEMERIS_TYPE = 0
CLASSIFICATION_TYPE = U
NORAD_CAT_ID   = 65974
ELEMENT_SET_NO = 999
REV_AT_EPOCH   = 199
BSTAR          = .22489761E-3
MEAN_MOTION_DOT = .265E-5
MEAN_MOTION_DDOT = 0

CCSDS_OMM_VERS = 2.0
CREATION_DATE  = 
ORIGINATOR     = 

OBJECT_NAME    = SDA-1665
OBJECT_ID      = 2025-230B
CENTER_NAME    = EARTH
REF_FRAME      = TEME
TIME_SYSTEM    = UTC
MEAN_ELEMENT_THEORY = SGP/SGP4

EPOCH          = 2025-10-30T07:19:53.973120
MEAN_MOTION    = 13.85425707
ECCENTRICITY   = .00049497
INCLINATION    = 81.3021
RA_OF_ASC_NODE = 64.8816
ARG_OF_PERICENTER = 116.2159
MEAN_ANOMALY   = 243.9508

EPHEMERIS_TYPE = 0
CLASSIFICATION_TYPE = U
NORAD_CAT_ID   = 65975
ELEMENT_SET_NO = 999
REV_AT_EPOCH   = 199
BSTAR          = .2061006E-3
MEAN_MOTION_DOT = .247E-5
MEAN_MOTION_DDOT = 0

CCSDS_OMM_VERS = 2.0
CREATION_DATE  = 
ORIGINATOR     = 

OBJECT_NAME    = SDA-1666
OBJECT_ID      = 2025-230C
CENTER_NAME    = EARTH
REF_FRAME      = TEME
TIME_SYSTEM    = UTC
MEAN_ELEMENT_THEORY = SGP/SGP4

EPOCH          = 2025-10-30T07:31:47.749440
MEAN_MOTION    = 13.84624678
ECCENTRICITY   = .00031904
INCLINATION    = 81.2992
RA_OF_ASC_NODE = 64.8856
ARG_OF_PERICENTER = 70.2181
MEAN_ANOMALY   = 289.9319

EPHEMERIS_TYPE = 0
CLASSIFICATION_TYPE = U
NORAD_CAT_ID   = 65976
ELEMENT_SET_NO = 999
REV_AT_EPOCH   = 199
BSTAR          = .24521995E-3
MEAN_MOTION_DOT = .287E-5
MEAN_MOTION_DDOT = 0

CCSDS_OMM_VERS = 2.0
CREATION_DATE  = 
ORIGINATOR     = 

OBJECT_NAME    = SDA-1667
OBJECT_ID      = 2025-230D
CENTER_NAME    = EARTH
REF_FRAME      = TEME
TIME_SYSTEM    = UTC
MEAN_ELEMENT_THEORY = SGP/SGP4

EPOCH          = 2025-10-30T07:28:03.992448
MEAN_MOTION    = 13.84875513
ECCENTRICITY   = .000402
INCLINATION    = 81.2988
RA_OF_ASC_NODE = 64.8812
ARG_OF_PERICENTER = 83.9896
MEAN_ANOMALY   = 276.1719

EPHEMERIS_TYPE = 0
CLASSIFICATION_TYPE = U
NORAD_CAT_ID   = 65977
ELEMENT_SET_NO = 999
REV_AT_EPOCH   = 199
BSTAR          = .21668958E-3
MEAN_MOTION_DOT = .256E-5
MEAN_MOTION_DDOT = 0

CCSDS_OMM_VERS = 2.0
CREATION_DATE  = 
ORIGINATOR     = 

OBJECT_NAME    = SDA-1668
OBJECT_ID      = 2025-230E
CENTER_NAME    = EARTH
REF_FRAME      = TEME
TIME_SYSTEM    = UTC
MEAN_ELEMENT_THEORY = SGP/SGP4

EPOCH          = 2025-10-30T05:35:17.419200
MEAN_MOTION    = 13.85467302
ECCENTRICITY   = .00049275
INCLINATION    = 81.3004
RA_OF_ASC_NODE = 64.9409
ARG_OF_PERICENTER = 119.0215
MEAN_ANOMALY   = 241.1437

EPHEMERIS_TYPE = 0
CLASSIFICATION_TYPE = U
NORAD_CAT_ID   = 65978
ELEMENT_SET_NO = 999
REV_AT_EPOCH   = 198
BSTAR          = .27786175E-3
MEAN_MOTION_DOT = .328E-5
MEAN_MOTION_DDOT = 0

CCSDS_OMM_VERS = 2.0
CREATION_DATE  = 
ORIGINATOR     = 

OBJECT_NAME    = SDA-1669
OBJECT_ID      = 2025-230F
CENTER_NAME    = EARTH
REF_FRAME      = TEME
TIME_SYSTEM    = UTC
MEAN_ELEMENT_THEORY = SGP/SGP4

EPOCH          = 2025-10-30T07:22:44.269248
MEAN_MOTION    = 13.85233941
ECCENTRICITY   = .00051015
INCLINATION    = 81.3007
RA_OF_ASC_NODE = 64.8776
ARG_OF_PERICENTER = 106.4273
MEAN_ANOMALY   = 253.7445

EPHEMERIS_TYPE = 0
CLASSIFICATION_TYPE = U
NORAD_CAT_ID   = 65979
ELEMENT_SET_NO = 999
REV_AT_EPOCH   = 199
BSTAR          = .21288379E-3
MEAN_MOTION_DOT = .253E-5
MEAN_MOTION_DDOT = 0

CCSDS_OMM_VERS = 2.0
CREATION_DATE  = 
ORIGINATOR     = 

OBJECT_NAME    = SDA-1670
OBJECT_ID      = 2025-230G
CENTER_NAME    = EARTH
REF_FRAME      = TEME
TIME_SYSTEM    = UTC
MEAN_ELEMENT_THEORY = SGP/SGP4

EPOCH          = 2025-10-30T07:29:01.591872
MEAN_MOTION    = 13.84810820
ECCENTRICITY   = .00037768
INCLINATION    = 81.2984
RA_OF_ASC_NODE = 64.8813
ARG_OF_PERICENTER = 80.7678
MEAN_ANOMALY   = 279.3906

EPHEMERIS_TYPE = 0
CLASSIFICATION_TYPE = U
NORAD_CAT_ID   = 65980
ELEMENT_SET_NO = 999
REV_AT_EPOCH   = 199
BSTAR          = .24808726E-3
MEAN_MOTION_DOT = .291E-5
MEAN_MOTION_DDOT = 0

CCSDS_OMM_VERS = 2.0
CREATION_DATE  = 
ORIGINATOR     = 

OBJECT_NAME    = SDA-1671
OBJECT_ID      = 2025-230H
CENTER_NAME    = EARTH
REF_FRAME      = TEME
TIME_SYSTEM    = UTC
MEAN_ELEMENT_THEORY = SGP/SGP4

EPOCH          = 2025-10-30T07:20:50.799264
MEAN_MOTION    = 13.85361180
ECCENTRICITY   = .00050205
INCLINATION    = 81.3011
RA_OF_ASC_NODE = 64.8761
ARG_OF_PERICENTER = 113.2520
MEAN_ANOMALY   = 246.9167

EPHEMERIS_TYPE = 0
CLASSIFICATION_TYPE = U
NORAD_CAT_ID   = 65981
ELEMENT_SET_NO = 999
REV_AT_EPOCH   = 199
BSTAR          = .24367739E-3
MEAN_MOTION_DOT = .289E-5
MEAN_MOTION_DDOT = 0

CCSDS_OMM_VERS = 2.0
CREATION_DATE  = 
ORIGINATOR     = 

OBJECT_NAME    = SDA-1672
OBJECT_ID      = 2025-230J
CENTER_NAME    = EARTH
REF_FRAME      = TEME
TIME_SYSTEM    = UTC
MEAN_ELEMENT_THEORY = SGP/SGP4

EPOCH          = 2025-10-30T07:26:54.222720
MEAN_MOTION    = 13.84953781
ECCENTRICITY   = .00043884
INCLINATION    = 81.3018
RA_OF_ASC_NODE = 64.8842
ARG_OF_PERICENTER = 86.4678
MEAN_ANOMALY   = 273.6981

EPHEMERIS_TYPE = 0
CLASSIFICATION_TYPE = U
NORAD_CAT_ID   = 65982
ELEMENT_SET_NO = 999
REV_AT_EPOCH   = 199
BSTAR          = .21282781E-3
MEAN_MOTION_DOT = .252E-5
MEAN_MOTION_DDOT = 0

CCSDS_OMM_VERS = 2.0
CREATION_DATE  = 
ORIGINATOR     = 

OBJECT_NAME    = SDA-1673
OBJECT_ID      = 2025-230K
CENTER_NAME    = EARTH
REF_FRAME      = TEME
TIME_SYSTEM    = UTC
MEAN_ELEMENT_THEORY = SGP/SGP4

EPOCH          = 2025-10-30T07:18:00.280224
MEAN_MOTION    = 13.85553056
ECCENTRICITY   = .0005051
INCLINATION    = 81.3017
RA_OF_ASC_NODE = 64.8774
ARG_OF_PERICENTER = 123.6242
MEAN_ANOMALY   = 236.5398

EPHEMERIS_TYPE = 0
CLASSIFICATION_TYPE = U
NORAD_CAT_ID   = 65983
ELEMENT_SET_NO = 999
REV_AT_EPOCH   = 199
BSTAR          = .21285517E-3
MEAN_MOTION_DOT = .255E-5
MEAN_MOTION_DDOT = 0

CCSDS_OMM_VERS = 2.0
CREATION_DATE  = 
ORIGINATOR     = 

OBJECT_NAME    = SDA-1674
OBJECT_ID      = 2025-230L
CENTER_NAME    = EARTH
REF_FRAME      = TEME
TIME_SYSTEM    = UTC
MEAN_ELEMENT_THEORY = SGP/SGP4

EPOCH          = 2025-10-30T07:20:20.914368
MEAN_MOTION    = 13.85395354
ECCENTRICITY   = .00049585
INCLINATION    = 81.3008
RA_OF_ASC_NODE = 64.8751
ARG_OF_PERICENTER = 114.9787
MEAN_ANOMALY   = 245.1885

EPHEMERIS_TYPE = 0
CLASSIFICATION_TYPE = U
NORAD_CAT_ID   = 65984
ELEMENT_SET_NO = 999
REV_AT_EPOCH   = 199
BSTAR          = .23397281E-3
MEAN_MOTION_DOT = .278E-5
MEAN_MOTION_DDOT = 0

CCSDS_OMM_VERS = 2.0
CREATION_DATE  = 
ORIGINATOR     = 

OBJECT_NAME    = SDA-1675
OBJECT_ID      = 2025-230M
CENTER_NAME    = EARTH
REF_FRAME      = TEME
TIME_SYSTEM    = UTC
MEAN_ELEMENT_THEORY = SGP/SGP4

EPOCH          = 2025-10-30T07:30:18.905184
MEAN_MOTION    = 13.84724369
ECCENTRICITY   = .00036012
INCLINATION    = 81.2984
RA_OF_ASC_NODE = 64.8825
ARG_OF_PERICENTER = 75.3250
MEAN_ANOMALY   = 284.8306

EPHEMERIS_TYPE = 0
CLASSIFICATION_TYPE = U
NORAD_CAT_ID   = 65985
ELEMENT_SET_NO = 999
REV_AT_EPOCH   = 199
BSTAR          = .24928757E-3
MEAN_MOTION_DOT = .292E-5
MEAN_MOTION_DDOT = 0

