SDA-1664                
1 65974U 25230A   25303.31301107  .00000265  00000+0  22490-3 0  9994
2 65974  81.2983  64.8830 0003528  73.2887 286.8657 13.84695914  1997
SDA-1665                
1 65975U 25230B   25303.30548580  .00000247  00000+0  20610-3 0  9994
2 65975  81.3021  64.8816 0004949 116.2159 243.9508 13.85425707  1995
SDA-1666                
1 65976U 25230C   25303.31374710  .00000287  00000+0  24522-3 0  9998
2 65976  81.2992  64.8856 0003190  70.2181 289.9319 13.84624678  1994
SDA-1667                
1 65977U 25230D   25303.31115732  .00000256  00000+0  21669-3 0  9991
2 65977  81.2988  64.8812 0004020  83.9896 276.1719 13.84875513  1997
SDA-1668                
1 65978U 25230E   25303.23284050  .00000328  00000+0  27786-3 0  9999
2 65978  81.3004  64.9409 0004927 119.0215 241.1437 13.85467302  1985
SDA-1669                
1 65979U 25230F   25303.30745682  .00000253  00000+0  21288-3 0  9999
2 65979  81.3007  64.8776 0005101 106.4273 253.7445 13.85233941  1993
SDA-1670                
1 65980U 25230G   25303.31182398  .00000291  00000+0  24809-3 0  9995
2 65980  81.2984  64.8813 0003776  80.7678 279.3906 13.84810820  1991
SDA-1671                
1 65981U 25230H   25303.30614351  .00000289  00000+0  24368-3 0  9991
2 65981  81.3011  64.8761 0005020 113.2520 246.9167 13.85361180  1998
SDA-1672                
1 65982U 25230J   25303.31034980  .00000252  00000+0  21283-3 0  9990
2 65982  81.3018  64.8842 0004388  86.4678 273.6981 13.84953781  1991
SDA-1673                
1 65983U 25230K   25303.30416991  .00000255  00000+0  21286-3 0  9992
2 65983  81.3017  64.8774 0005051 123.6242 236.5398 13.85553056  1996
SDA-1674                
1 65984U 25230L   25303.30579762  .00000278  00000+0  23397-3 0  9999
2 65984  81.3008  64.8751 0004958 114.9787 245.1885 13.85395354  1996
SDA-1675                
1 65985U 25230M   25303.31271881  .00000292  00000+0  24929-3 0  9990
2 65985  81.2984  64.8825 0003601  75.3250 284.8306 13.84724369  1999
